TIANMU-1 08             
1 57400U 23101B   26066.00237819  .00000346  00000+0  14775-4 0  9993
2 57400  97.2717 118.7901 0006380 134.2174 225.9592 15.29204229146020
STARLINK-32159          
1 60293U 24132R   26068.35725777 -.00003029  00000+0 -90282-4 0  9997
2 60293  53.1610  53.6754 0001340  85.2183 274.8971 15.30169192 91514
